IRIDIUM 63              
1 25286U 98021B   25339.94106255  .00000667  00000+0  21987-3 0  9995
2 25286  86.3989  10.0678 0002400  91.7520 268.3952 14.36727671448500
IRIDIUM 69              
1 25319U 98026A   25339.84133687  .00001018  00000+0  30934-3 0  9998
2 25319  86.3984  22.8551 0003420 137.7102 222.4362 14.41206862447788
IRIDIUM 71              
1 25320U 98026B   25339.62032483  .00000543  00000+0  16178-3 0  9994
2 25320  86.3982  17.6217 0001144 163.3934 196.7304 14.41311750448286
IRIDIUM 73              
1 25344U 98032C   25339.95620764  .00001211  00000+0  29506-3 0  9990
2 25344  86.4403 333.8728 0002823  99.3868 260.7657 14.51975256455481
IRIDIUM 82              
1 25467U 98051A   25339.85256555  .00061699  00000+0  11708-2 0  9999
2 25467  86.3613  24.5744 0062699   2.1169 358.0340 15.45878989450332
